start=new Date('2023-03-10T00:00:00.000Z').valueOf();
sats=[{"SITE":"AFETR","ECCENTRICITY":"0.00011500","TLE_LINE1":"1 55466U 23015T   23068.37702374  .00009296  00000-0  74190-4 0  9990","SEMIMAJOR_AXIS":"6733.102","OBJECT_TYPE":"PAYLOAD","REF_FRAME":"TEME","GP_ID":"227771574","TLE_LINE2":"2 55466  42.9996 177.3747 0001150 223.5716 136.5061 15.71375600  5671","EPHEMERIS_TYPE":"0","MEAN_MOTION":"15.71375600","FILE":"3855951","OBJECT_NAME":"STARLINK-5628","APOAPSIS":"355.741","INCLINATION":"42.9996","TIME_SYSTEM":"UTC","CLASSIFICATION_TYPE":"U","EPOCH":"2023-03-09T09:02:54.851136","PERIAPSIS":"354.192","BSTAR":"0.00007419000000","LAUNCH_DATE":"2023-02-02","REV_AT_EPOCH":"567","COUNTRY_CODE":"US","PERIOD":"91.639","MEAN_ELEMENT_THEORY":"SGP4","RCS_SIZE":"LARGE","MEAN_MOTION_DOT":"0.00009296","RA_OF_ASC_NODE":"177.3747","DECAY_DATE":null,"ELEMENT_SET_NO":"999","MEAN_MOTION_DDOT":"0.0000000000000","NORAD_CAT_ID":"55466","OBJECT_ID":"2023-015T","MEAN_ANOMALY":"136.5061","CENTER_NAME":"EARTH","ARG_OF_PERICENTER":"223.5716"},{"DECAY_DATE":null,"ELEMENT_SET_NO":"999","NORAD_CAT_ID":"55467","MEAN_MOTION_DDOT":"0.0000000000000","OBJECT_ID":"2023-015U","MEAN_ANOMALY":"94.2202","ARG_OF_PERICENTER":"265.8394","CENTER_NAME":"EARTH","REV_AT_EPOCH":"572","LAUNCH_DATE":"2023-02-02","COUNTRY_CODE":"US","PERIOD":"91.640","MEAN_ELEMENT_THEORY":"SGP4","RCS_SIZE":"LARGE","RA_OF_ASC_NODE":"175.4648","MEAN_MOTION_DOT":"0.00004356","EPHEMERIS_TYPE":"0","FILE":"3855951","MEAN_MOTION":"15.71361806","OBJECT_NAME":"STARLINK-5679","APOAPSIS":"356.608","INCLINATION":"43.0023","TIME_SYSTEM":"UTC","CLASSIFICATION_TYPE":"U","PERIAPSIS":"353.404","EPOCH":"2023-03-09T16:41:46.429728","BSTAR":"0.00003664500000","SITE":"AFETR","ECCENTRICITY":"0.00023790","SEMIMAJOR_AXIS":"6733.141","TLE_LINE1":"1 55467U 23015U   23068.69567627  .00004356  00000-0  36645-4 0  9991","OBJECT_TYPE":"PAYLOAD","REF_FRAME":"TEME","GP_ID":"227770324","TLE_LINE2":"2 55467  43.0023 175.4648 0002379 265.8394  94.2202 15.71361806  5725"},{"TLE_LINE1":"1 55468U 23015V   23068.63158363  .00006633  00000-0  53945-4 0  9991","SEMIMAJOR_AXIS":"6733.107","SITE":"AFETR","ECCENTRICITY":"0.00015550","GP_ID":"227770573","TLE_LINE2":"2 55468  42.9999 175.8457 0001555 329.5169  30.5608 15.71373579  5713","REF_FRAME":"TEME","OBJECT_TYPE":"PAYLOAD","APOAPSIS":"356.019","OBJECT_NAME":"STARLINK-5672","FILE":"3855951","MEAN_MOTION":"15.71373579","EPHEMERIS_TYPE":"0","BSTAR":"0.00005394500000","PERIAPSIS":"353.925","EPOCH":"2023-03-09T15:09:28.825632","CLASSIFICATION_TYPE":"U","TIME_SYSTEM":"UTC","INCLINATION":"42.9999","MEAN_ELEMENT_THEORY":"SGP4","PERIOD":"91.640","COUNTRY_CODE":"US","LAUNCH_DATE":"2023-02-02","REV_AT_EPOCH":"571","MEAN_MOTION_DOT":"0.00006633","RA_OF_ASC_NODE":"175.8457","RCS_SIZE":"LARGE","MEAN_MOTION_DDOT":"0.0000000000000","NORAD_CAT_ID":"55468","ELEMENT_SET_NO":"999","DECAY_DATE":null,"ARG_OF_PERICENTER":"329.5169","CENTER_NAME":"EARTH","MEAN_ANOMALY":"30.5608","OBJECT_ID":"2023-015V"},{"REF_FRAME":"TEME","TLE_LINE2":"2 55469  43.0024 175.4651 0002018 263.4255  96.6383 15.71357889  5724","GP_ID":"227771320","OBJECT_TYPE":"PAYLOAD","ECCENTRICITY":"0.00020180","SITE":"AFETR","TLE_LINE1":"1 55469U 23015W   23068.69536383  .00001568  00000-0  15401-4 0  9997","SEMIMAJOR_AXIS":"6733.152","PERIAPSIS":"353.658","EPOCH":"2023-03-09T16:41:19.434912","BSTAR":"0.00001540100000","INCLINATION":"43.0024","TIME_SYSTEM":"UTC","CLASSIFICATION_TYPE":"U","OBJECT_NAME":"STARLINK-5681","APOAPSIS":"356.376","MEAN_MOTION":"15.71357889","FILE":"3855951","EPHEMERIS_TYPE":"0","RCS_SIZE":"LARGE","RA_OF_ASC_NODE":"175.4651","MEAN_MOTION_DOT":"0.00001568","MEAN_ELEMENT_THEORY":"SGP4","PERIOD":"91.640","LAUNCH_DATE":"2023-02-02","REV_AT_EPOCH":"572","COUNTRY_CODE":"US","MEAN_ANOMALY":"96.6383","ARG_OF_PERICENTER":"263.4255","CENTER_NAME":"EARTH","OBJECT_ID":"2023-015W","DECAY_DATE":null,"NORAD_CAT_ID":"55469","MEAN_MOTION_DDOT":"0.0000000000000","ELEMENT_SET_NO":"999"},{"OBJECT_TYPE":"PAYLOAD","TLE_LINE2":"2 55470  43.0022 175.4598 0002086 263.9370  96.1260 15.71340983  5728","GP_ID":"227772075","REF_FRAME":"TEME","TLE_LINE1":"1 55470U 23015X   23068.69505645 -.00002281  00000-0 -13957-4 0  9995","SEMIMAJOR_AXIS":"6733.201","ECCENTRICITY":"0.00020860","SITE":"AFETR","CLASSIFICATION_TYPE":"U","TIME_SYSTEM":"UTC","INCLINATION":"43.0022","BSTAR":"-0.00001395700000","EPOCH":"2023-03-09T16:40:52.877280","PERIAPSIS":"353.661","FILE":"3855951","MEAN_MOTION":"15.71340983","EPHEMERIS_TYPE":"0","APOAPSIS":"356.470","OBJECT_NAME":"STARLINK-5708","RA_OF_ASC_NODE":"175.4598","MEAN_MOTION_DOT":"-0.00002281","RCS_SIZE":"LARGE","COUNTRY_CODE":"US","LAUNCH_DATE":"2023-02-02","REV_AT_EPOCH":"572","MEAN_ELEMENT_THEORY":"SGP4","PERIOD":"91.641","OBJECT_ID":"2023-015X","ARG_OF_PERICENTER":"263.9370","CENTER_NAME":"EARTH","MEAN_ANOMALY":"96.1260","NORAD_CAT_ID":"55470","MEAN_MOTION_DDOT":"0.0000000000000","ELEMENT_SET_NO":"999","DECAY_DATE":null},{"OBJECT_TYPE":"PAYLOAD","TLE_LINE2":"2 55471  43.0021 175.4584 0001849 265.2206  94.8451 15.71358465  5723","GP_ID":"227770825","REF_FRAME":"TEME","TLE_LINE1":"1 55471U 23015Y   23068.69494299  .00001753  00000-0  16812-4 0  9992","SEMIMAJOR_AXIS":"6733.151","SITE":"AFETR","ECCENTRICITY":"0.00018490","CLASSIFICATION_TYPE":"U","TIME_SYSTEM":"UTC","INCLINATION":"43.0021","BSTAR":"0.00001681200000","EPOCH":"2023-03-09T16:40:43.074336","PERIAPSIS":"353.771","FILE":"3855951","MEAN_MOTION":"15.71358465","EPHEMERIS_TYPE":"0","APOAPSIS":"356.261","OBJECT_NAME":"STARLINK-5711","RA_OF_ASC_NODE":"175.4584","MEAN_MOTION_DOT":"0.00001753","RCS_SIZE":"LARGE","COUNTRY_CODE":"US","LAUNCH_DATE":"2023-02-02","REV_AT_EPOCH":"572","MEAN_ELEMENT_THEORY":"SGP4","PERIOD":"91.640","OBJECT_ID":"2023-015Y","ARG_OF_PERICENTER":"265.2206","CENTER_NAME":"EARTH","MEAN_ANOMALY":"94.8451","NORAD_CAT_ID":"55471","MEAN_MOTION_DDOT":"0.0000000000000","ELEMENT_SET_NO":"999","DECAY_DATE":null},{"SITE":"AFETR","ECCENTRICITY":"0.00020710","TLE_LINE1":"1 55472U 23015Z   23068.69452134  .00002985  00000-0  26197-4 0  9990","SEMIMAJOR_AXIS":"6733.148","REF_FRAME":"TEME","GP_ID":"227771074","TLE_LINE2":"2 55472  43.0027 175.4563 0002071 260.6216  99.4418 15.71359366  5720","OBJECT_TYPE":"PAYLOAD","OBJECT_NAME":"STARLINK-5705","APOAPSIS":"356.407","MEAN_MOTION":"15.71359366","FILE":"3855951","EPHEMERIS_TYPE":"0","PERIAPSIS":"353.619","EPOCH":"2023-03-09T16:40:06.643776","BSTAR":"0.00002619700000","INCLINATION":"43.0027","TIME_SYSTEM":"UTC","CLASSIFICATION_TYPE":"U","MEAN_ELEMENT_THEORY":"SGP4","PERIOD":"91.640","REV_AT_EPOCH":"572","LAUNCH_DATE":"2023-02-02","COUNTRY_CODE":"US","RCS_SIZE":"LARGE","RA_OF_ASC_NODE":"175.4563","MEAN_MOTION_DOT":"0.00002985","DECAY_DATE":null,"MEAN_MOTION_DDOT":"0.0000000000000","NORAD_CAT_ID":"55472","ELEMENT_SET_NO":"999","MEAN_ANOMALY":"99.4418","CENTER_NAME":"EARTH","ARG_OF_PERICENTER":"260.6216","OBJECT_ID":"2023-015Z"},{"TIME_SYSTEM":"UTC","CLASSIFICATION_TYPE":"U","INCLINATION":"43.0017","BSTAR":"-0.00002276600000","PERIAPSIS":"353.381","EPOCH":"2023-03-09T16:40:24.364416","EPHEMERIS_TYPE":"0","MEAN_MOTION":"15.71352402","FILE":"3855951","APOAPSIS":"356.685","OBJECT_NAME":"STARLINK-5687","OBJECT_TYPE":"PAYLOAD","TLE_LINE2":"2 55473  43.0017 175.4562 0002453 256.3558 103.7036 15.71352402  5723","GP_ID":"227771821","REF_FRAME":"TEME","SEMIMAJOR_AXIS":"6733.168","TLE_LINE1":"1 55473U 23015AA  23068.69472644 -.00003437  00000-0 -22766-4 0  9992","ECCENTRICITY":"0.00024530","SITE":"AFETR","OBJECT_ID":"2023-015AA","CENTER_NAME":"EARTH","ARG_OF_PERICENTER":"256.3558","MEAN_ANOMALY":"103.7036","ELEMENT_SET_NO":"999","MEAN_MOTION_DDOT":"0.0000000000000","NORAD_CAT_ID":"55473","DECAY_DATE":null,"MEAN_MOTION_DOT":"-0.00003437","RA_OF_ASC_NODE":"175.4562","RCS_SIZE":"LARGE","COUNTRY_CODE":"US","LAUNCH_DATE":"2023-02-02","REV_AT_EPOCH":"572","PERIOD":"91.641","MEAN_ELEMENT_THEORY":"SGP4"},{"REF_FRAME":"TEME","TLE_LINE2":"2 55474  43.0008 175.9144 0001285 279.5421 247.7429 15.40490839  5732","GP_ID":"227739024","OBJECT_TYPE":"PAYLOAD","ECCENTRICITY":"0.00012850","SITE":"AFETR","TLE_LINE1":"1 55474U 23015AB  23068.91667824 -.01249777  00000-0 -33286-1 0  9990","SEMIMAJOR_AXIS":"6822.797","EPOCH":"2023-03-09T22:00:00.999936","PERIAPSIS":"443.785","BSTAR":"-0.03328600000000","INCLINATION":"43.0008","CLASSIFICATION_TYPE":"U","TIME_SYSTEM":"UTC","OBJECT_NAME":"STARLINK-5689","APOAPSIS":"445.538","EPHEMERIS_TYPE":"0","MEAN_MOTION":"15.40490839","FILE":"3855631","RCS_SIZE":"LARGE","RA_OF_ASC_NODE":"175.9144","MEAN_MOTION_DOT":"-0.01249777","PERIOD":"93.477","MEAN_ELEMENT_THEORY":"SGP4","LAUNCH_DATE":"2023-02-02","REV_AT_EPOCH":"573","COUNTRY_CODE":"US","MEAN_ANOMALY":"247.7429","ARG_OF_PERICENTER":"279.5421","CENTER_NAME":"EARTH","OBJECT_ID":"2023-015AB","DECAY_DATE":null,"ELEMENT_SET_NO":"999","MEAN_MOTION_DDOT":"0.0000000000000","NORAD_CAT_ID":"55474"},{"COUNTRY_CODE":"US","LAUNCH_DATE":"2023-02-02","REV_AT_EPOCH":"572","MEAN_ELEMENT_THEORY":"SGP4","PERIOD":"91.641","RA_OF_ASC_NODE":"175.4557","MEAN_MOTION_DOT":"0.00002324","RCS_SIZE":"LARGE","NORAD_CAT_ID":"55475","MEAN_MOTION_DDOT":"0.0000000000000","ELEMENT_SET_NO":"999","DECAY_DATE":null,"OBJECT_ID":"2023-015AC","ARG_OF_PERICENTER":"254.5015","CENTER_NAME":"EARTH","MEAN_ANOMALY":"105.5648","TLE_LINE1":"1 55475U 23015AC  23068.69463818  .00002324  00000-0  21175-4 0  9992","SEMIMAJOR_AXIS":"6733.178","ECCENTRICITY":"0.00018590","SITE":"AFETR","OBJECT_TYPE":"PAYLOAD","GP_ID":"227770325","TLE_LINE2":"2 55475  43.0034 175.4557 0001859 254.5015 105.5648 15.71348722  5724","REF_FRAME":"TEME","MEAN_MOTION":"15.71348722","FILE":"3855951","EPHEMERIS_TYPE":"0","APOAPSIS":"356.295","OBJECT_NAME":"STARLINK-5650","TIME_SYSTEM":"UTC","CLASSIFICATION_TYPE":"U","INCLINATION":"43.0034","BSTAR":"0.00002117500000","EPOCH":"2023-03-09T16:40:16.738752","PERIAPSIS":"353.792"}];
